{
    "links": {
        "self": "http://www.neowsapp.com/rest/v1/neo/54051039?api_key=iIulBulltgU6a56xZRHN4H3l9WmuAYTsLGpBGhQ2"
    },
    "id": "54051039",
    "neo_reference_id": "54051039",
    "name": "(2020 PM2)",
    "designation": "2020 PM2",
    "nasa_jpl_url": "http://ssd.jpl.nasa.gov/sbdb.cgi?sstr=54051039",
    "absolute_magnitude_h": 26.279,
    "estimated_diameter": {
        "kilometers": {
            "estimated_diameter_min": 0.0147487419,
            "estimated_diameter_max": 0.0329791895
        },
        "meters": {
            "estimated_diameter_min": 14.7487419334,
            "estimated_diameter_max": 32.9791895457
        },
        "miles": {
            "estimated_diameter_min": 0.0091644405,
            "estimated_diameter_max": 0.020492312
        },
        "feet": {
            "estimated_diameter_min": 48.3882624848,
            "estimated_diameter_max": 108.199444229
        }
    },
    "is_potentially_hazardous_asteroid": false,
    "close_approach_data": [
        {
            "close_approach_date": "2020-08-05",
            "close_approach_date_full": "2020-Aug-05 08:29",
            "epoch_date_close_approach": 1596616140000,
            "relative_velocity": {
                "kilometers_per_second": "11.5172607372",
                "kilometers_per_hour": "41462.1386540442",
                "miles_per_hour": "25762.9605431199"
            },
            "miss_distance": {
                "astronomical": "0.0135390866",
                "lunar": "5.2667046874",
                "kilometers": "2025418.517105542",
                "miles": "1258536.7074067996"
            },
            "orbiting_body": "Earth"
        }
    ],
    "orbital_data": {
        "orbit_id": "3",
        "orbit_determination_date": "2020-08-19 07:54:58",
        "first_observation_date": "2020-08-10",
        "last_observation_date": "2020-08-16",
        "data_arc_in_days": 6,
        "observations_used": 21,
        "orbit_uncertainty": "8",
        "minimum_orbit_intersection": ".0135164",
        "jupiter_tisserand_invariant": "3.680",
        "epoch_osculation": "2459075.5",
        "eccentricity": ".5372607170350744",
        "semi_major_axis": "1.965959028817399",
        "inclination": "4.503994886675562",
        "ascending_node_longitude": "142.6621910820025",
        "orbital_period": "1006.839211835574",
        "perihelion_distance": ".9097264713333846",
        "perihelion_argument": "124.6680000277938",
        "aphelion_distance": "3.022191586301413",
        "perihelion_time": "2459031.744060114167",
        "mean_anomaly": "15.64513794628845",
        "mean_motion": ".3575546082911116",
        "equinox": "J2000",
        "orbit_class": {
            "orbit_class_type": "APO",
            "orbit_class_description": "Near-Earth asteroid orbits which cross the Earth’s orbit similar to that of 1862 Apollo",
            "orbit_class_range": "a (semi-major axis) > 1.0 AU; q (perihelion) < 1.017 AU"
        }
    },
    "is_sentry_object": false
}